{
 "type": "FeatureCollection",
 "features": [
  {
   "type": "Feature",
   "properties": {
    "role": "parcel",
    "label": "Lot 12",
    "note": "30 × 45 m, 1350 m²"
   },
   "geometry": {
    "type": "Polygon",
    "coordinates": [
     [
      [
       24.85772793,
       59.30016929
      ],
      [
       24.85726266,
       59.30029539
      ],
      [
       24.85763249,
       59.30065232
      ],
      [
       24.85809776,
       59.30052622
      ],
      [
       24.85772793,
       59.30016929
      ]
     ]
    ]
   }
  },
  {
   "type": "Feature",
   "properties": {
    "role": "neighbor",
    "label": "Lot 11"
   },
   "geometry": {
    "type": "Polygon",
    "coordinates": [
     [
      [
       24.85819319,
       59.30004319
      ],
      [
       24.85772793,
       59.30016929
      ],
      [
       24.85809776,
       59.30052622
      ],
      [
       24.85856303,
       59.30040012
      ],
      [
       24.85819319,
       59.30004319
      ]
     ]
    ]
   }
  },
  {
   "type": "Feature",
   "properties": {
    "role": "neighbor",
    "label": "Lot 13"
   },
   "geometry": {
    "type": "Polygon",
    "coordinates": [
     [
      [
       24.85726266,
       59.30029539
      ],
      [
       24.8567974,
       59.30042148
      ],
      [
       24.85716722,
       59.30077841
      ],
      [
       24.85763249,
       59.30065232
      ],
      [
       24.85726266,
       59.30029539
      ]
     ]
    ]
   }
  },
  {
   "type": "Feature",
   "properties": {
    "role": "street",
    "label": "Demo Lane"
   },
   "geometry": {
    "type": "LineString",
    "coordinates": [
     [
      24.85882853,
      59.3003688
     ],
     [
      24.85696746,
      59.30087319
     ]
    ]
   }
  }
 ]
}
